{
  "type": "FeatureCollection",
  "features": [
    {
      "type": "Feature",
      "properties": {
        "norad_id": 66639,
        "name": "STARLINK-35908",
        "group": "last-30-days",
        "lat": 53.10390411500055,
        "lon": -134.56253984207453,
        "alt_km": 439.2620247685827,
        "timestamp": "2025-12-24T05:51:18.324339+00:00",
        "meta_object_name": "STARLINK-35908",
        "meta_object_id": "2025-271Y",
        "meta_epoch": "2025-12-24T00:00:00.999648",
        "meta_mean_motion": 15.39607188,
        "meta_eccentricity": 0.00012867,
        "meta_inclination": 53.1606,
        "meta_ra_of_asc_node": 133.6078,
        "meta_arg_of_pericenter": 83.6737,
        "meta_mean_anomaly": 95.2305,
        "meta_ephemeris_type": 0,
        "meta_classification_type": "U",
        "meta_norad_cat_id": 66639,
        "meta_element_set_no": 999,
        "meta_rev_at_epoch": 605,
        "meta_bstar": -4.07172e-06,
        "meta_mean_motion_dot": -5.62e-06,
        "meta_mean_motion_ddot": 0,
        "tle_line1": "1 66639U 25271Y   25358.00001157 -.00000562  00000+0 -40717-5 0  9992",
        "tle_line2": "2 66639  53.1606 133.6078 0001286  83.6737  95.2305 15.39607188  6055"
      },
      "geometry": {
        "type": "Point",
        "coordinates": [
          -134.56253984207453,
          53.10390411500055
        ]
      }
    },
    {
      "type": "Feature",
      "properties": {
        "norad_id": 66640,
        "name": "STARLINK-35921",
        "group": "last-30-days",
        "lat": 31.164237193202055,
        "lon": 159.52024627104245,
        "alt_km": 442.5928291025275,
        "timestamp": "2025-12-24T05:51:18.324349+00:00",
        "meta_object_name": "STARLINK-35921",
        "meta_object_id": "2025-271Z",
        "meta_epoch": "2025-12-23T17:13:03.480960",
        "meta_mean_motion": 15.3963332,
        "meta_eccentricity": 9.513e-05,
        "meta_inclination": 53.161,
        "meta_ra_of_asc_node": 135.0409,
        "meta_arg_of_pericenter": 65.28,
        "meta_mean_anomaly": 294.8303,
        "meta_ephemeris_type": 0,
        "meta_classification_type": "U",
        "meta_norad_cat_id": 66640,
        "meta_element_set_no": 999,
        "meta_rev_at_epoch": 590,
        "meta_bstar": 0.0015456656,
        "meta_mean_motion_dot": 0.00061957,
        "meta_mean_motion_ddot": 0,
        "tle_line1": "1 66640U 25271Z   25357.71740140  .00061957  00000+0  15457-2 0  9996",
        "tle_line2": "2 66640  53.1610 135.0409 0000951  65.2800 294.8303 15.39633320  5906"
      },
      "geometry": {
        "type": "Point",
        "coordinates": [
          159.52024627104245,
          31.164237193202055
        ]
      }
    },
    {
      "type": "Feature",
      "properties": {
        "norad_id": 66641,
        "name": "STARLINK-35923",
        "group": "last-30-days",
        "lat": -15.678457475960165,
        "lon": -35.61019877066964,
        "alt_km": 432.7236308316142,
        "timestamp": "2025-12-24T05:51:18.324359+00:00",
        "meta_object_name": "STARLINK-35923",
        "meta_object_id": "2025-271AA",
        "meta_epoch": "2025-12-24T00:00:00.999648",
        "meta_mean_motion": 15.45580205,
        "meta_eccentricity": 0.00011721,
        "meta_inclination": 53.1602,
        "meta_ra_of_asc_node": 133.4024,
        "meta_arg_of_pericenter": 86.4538,
        "meta_mean_anomaly": 195.052,
        "meta_ephemeris_type": 0,
        "meta_classification_type": "U",
        "meta_norad_cat_id": 66641,
        "meta_element_set_no": 999,
        "meta_rev_at_epoch": 605,
        "meta_bstar": -0.00074540237,
        "meta_mean_motion_dot": -0.00036676,
        "meta_mean_motion_ddot": 0,
        "tle_line1": "1 66641U 25271AA  25358.00001157 -.00036676  00000+0 -74540-3 0  9999",
        "tle_line2": "2 66641  53.1602 133.4024 0001172  86.4538 195.0520 15.45580205  6052"
      },
      "geometry": {
        "type": "Point",
        "coordinates": [
          -35.61019877066964,
          -15.678457475960165
        ]
      }
    },
    {
      "type": "Feature",
      "properties": {
        "norad_id": 66642,
        "name": "STARLINK-35926",
        "group": "last-30-days",
        "lat": -10.136898605728376,
        "lon": -40.038852397402174,
        "alt_km": 442.89065394856516,
        "timestamp": "2025-12-24T05:51:18.324369+00:00",
        "meta_object_name": "STARLINK-35926",
        "meta_object_id": "2025-271AB",
        "meta_epoch": "2025-12-24T00:00:00.999648",
        "meta_mean_motion": 15.43113563,
        "meta_eccentricity": 0.0001481,
        "meta_inclination": 53.1598,
        "meta_ra_of_asc_node": 133.4127,
        "meta_arg_of_pericenter": 80.2472,
        "meta_mean_anomaly": 196.8784,
        "meta_ephemeris_type": 0,
        "meta_classification_type": "U",
        "meta_norad_cat_id": 66642,
        "meta_element_set_no": 999,
        "meta_rev_at_epoch": 581,
        "meta_bstar": -0.05245662,
        "meta_mean_motion_dot": -0.02089967,
        "meta_mean_motion_ddot": 0,
        "tle_line1": "1 66642U 25271AB  25358.00001157 -.02089967  00000+0 -52457-1 0  9994",
        "tle_line2": "2 66642  53.1598 133.4127 0001481  80.2472 196.8784 15.43113563  5814"
      },
      "geometry": {
        "type": "Point",
        "coordinates": [
          -40.038852397402174,
          -10.136898605728376
        ]
      }
    },
    {
      "type": "Feature",
      "properties": {
        "norad_id": 66643,
        "name": "STARLINK-35918",
        "group": "last-30-days",
        "lat": 45.16566151763704,
        "lon": -96.53607428486025,
        "alt_km": 440.6189471845537,
        "timestamp": "2025-12-24T05:51:18.324379+00:00",
        "meta_object_name": "STARLINK-35918",
        "meta_object_id": "2025-271AC",
        "meta_epoch": "2025-12-24T00:00:00.999648",
        "meta_mean_motion": 15.39608468,
        "meta_eccentricity": 0.00010742,
        "meta_inclination": 53.1602,
        "meta_ra_of_asc_node": 133.5569,
        "meta_arg_of_pericenter": 86.2968,
        "meta_mean_anomaly": 118.3607,
        "meta_ephemeris_type": 0,
        "meta_classification_type": "U",
        "meta_norad_cat_id": 66643,
        "meta_element_set_no": 999,
        "meta_rev_at_epoch": 605,
        "meta_bstar": -7.3262144e-05,
        "meta_mean_motion_dot": -3.327e-05,
        "meta_mean_motion_ddot": 0,
        "tle_line1": "1 66643U 25271AC  25358.00001157 -.00003327  00000+0 -73262-4 0  9999",
        "tle_line2": "2 66643  53.1602 133.5569 0001074  86.2968 118.3607 15.39608468  6054"
      },
      "geometry": {
        "type": "Point",
        "coordinates": [
          -96.53607428486025,
          45.16566151763704
        ]
      }
    },
    {
      "type": "Feature",
      "properties": {
        "norad_id": 66644,
        "name": "STARLINK-35938",
        "group": "last-30-days",
        "lat": -8.656967526439562,
        "lon": -41.183792901607816,
        "alt_km": 442.42302452308195,
        "timestamp": "2025-12-24T05:51:18.324391+00:00",
        "meta_object_name": "STARLINK-35938",
        "meta_object_id": "2025-271AD",
        "meta_epoch": "2025-12-24T00:00:00.999648",
        "meta_mean_motion": 15.43126041,
        "meta_eccentricity": 0.00013157,
        "meta_inclination": 53.1599,
        "meta_ra_of_asc_node": 133.4167,
        "meta_arg_of_pericenter": 94.5466,
        "meta_mean_anomaly": 180.7037,
        "meta_ephemeris_type": 0,
        "meta_classification_type": "U",
        "meta_norad_cat_id": 66644,
        "meta_element_set_no": 999,
        "meta_rev_at_epoch": 605,
        "meta_bstar": -0.052345327,
        "meta_mean_motion_dot": -0.02086723,
        "meta_mean_motion_ddot": 0,
        "tle_line1": "1 66644U 25271AD  25358.00001157 -.02086723  00000+0 -52345-1 0  9999",
        "tle_line2": "2 66644  53.1599 133.4167 0001315  94.5466 180.7037 15.43126041  6053"
      },
      "geometry": {
        "type": "Point",
        "coordinates": [
          -41.183792901607816,
          -8.656967526439562
        ]
      }
    },
    {
      "type": "Feature",
      "properties": {
        "norad_id": 66645,
        "name": "SHENZHOU-22",
        "group": "last-30-days",
        "lat": 5.679876979983652,
        "lon": -46.69256191516462,
        "alt_km": 390.5812860417591,
        "timestamp": "2025-12-24T05:51:18.324405+00:00",
        "meta_object_name": "SHENZHOU-22",
        "meta_object_id": "2025-272A",
        "meta_epoch": "2025-12-23T22:08:03.098976",
        "meta_mean_motion": 15.5961343,
        "meta_eccentricity": 0.00080636,
        "meta_inclination": 41.4684,
        "meta_ra_of_asc_node": 308.7959,
        "meta_arg_of_pericenter": 129.7983,
        "meta_mean_anomaly": 230.3567,
        "meta_ephemeris_type": 0,
        "meta_classification_type": "U",
        "meta_norad_cat_id": 66645,
        "meta_element_set_no": 999,
        "meta_rev_at_epoch": 26550,
        "meta_bstar": 0.00017429265,
        "meta_mean_motion_dot": 0.0001399,
        "meta_mean_motion_ddot": 0,
        "tle_line1": "1 66645U 25272A   25357.92225809  .00013990  00000+0  17429-3 0  9991",
        "tle_line2": "2 66645  41.4684 308.7959 0008063 129.7983 230.3567 15.59613430265504"
      },
      "geometry": {
        "type": "Point",
        "coordinates": [
          -46.69256191516462,
          5.679876979983652
        ]
      }
    }
  ]
}